{
  "type": "FeatureCollection",
  "features": [
    {
      "type": "Feature",
      "properties": {
        "norad_id": 57400,
        "name": "TIANMU-1 08",
        "group": "weather",
        "lat": 25.232813917175577,
        "lon": -149.39181225560873,
        "alt_km": 477.9547521671484,
        "timestamp": "2025-12-03T06:58:42.884439+00:00",
        "meta_object_name": "TIANMU-1 08",
        "meta_object_id": "2023-101B",
        "meta_epoch": "2025-12-02T20:52:27.111072",
        "meta_mean_motion": 15.27828627,
        "meta_eccentricity": 0.0007448,
        "meta_inclination": 97.2886,
        "meta_ra_of_asc_node": 26.7385,
        "meta_arg_of_pericenter": 111.601,
        "meta_mean_anomaly": 248.6024,
        "meta_ephemeris_type": 0,
        "meta_classification_type": "U",
        "meta_norad_cat_id": 57400,
        "meta_element_set_no": 999,
        "meta_rev_at_epoch": 13164,
        "meta_bstar": 0.00036264,
        "meta_mean_motion_dot": 9.793e-05,
        "meta_mean_motion_ddot": 0,
        "tle_line1": "1 57400U 23101B   25336.86975823  .00009793  00000+0  36264-3 0  9991",
        "tle_line2": "2 57400  97.2886  26.7385 0007448 111.6010 248.6024 15.27828627131641"
      },
      "geometry": {
        "type": "Point",
        "coordinates": [
          -149.39181225560873,
          25.232813917175577
        ]
      }
    },
    {
      "type": "Feature",
      "properties": {
        "norad_id": 57401,
        "name": "TIANMU-1 09",
        "group": "weather",
        "lat": -45.82075593909233,
        "lon": -160.89525025573033,
        "alt_km": 491.1369017918896,
        "timestamp": "2025-12-03T06:58:42.884456+00:00",
        "meta_object_name": "TIANMU-1 09",
        "meta_object_id": "2023-101C",
        "meta_epoch": "2025-12-02T20:33:39.515904",
        "meta_mean_motion": 15.27849849,
        "meta_eccentricity": 0.0006733,
        "meta_inclination": 97.2843,
        "meta_ra_of_asc_node": 26.2445,
        "meta_arg_of_pericenter": 110.708,
        "meta_mean_anomaly": 249.4881,
        "meta_ephemeris_type": 0,
        "meta_classification_type": "U",
        "meta_norad_cat_id": 57401,
        "meta_element_set_no": 999,
        "meta_rev_at_epoch": 13164,
        "meta_bstar": 0.00036327,
        "meta_mean_motion_dot": 9.815e-05,
        "meta_mean_motion_ddot": 0,
        "tle_line1": "1 57401U 23101C   25336.85670736  .00009815  00000+0  36327-3 0  9991",
        "tle_line2": "2 57401  97.2843  26.2445 0006733 110.7080 249.4881 15.27849849131649"
      },
      "geometry": {
        "type": "Point",
        "coordinates": [
          -160.89525025573033,
          -45.82075593909233
        ]
      }
    },
    {
      "type": "Feature",
      "properties": {
        "norad_id": 57402,
        "name": "TIANMU-1 10",
        "group": "weather",
        "lat": 37.82831339221022,
        "lon": 21.802062096064734,
        "alt_km": 477.7715829325498,
        "timestamp": "2025-12-03T06:58:42.884472+00:00",
        "meta_object_name": "TIANMU-1 10",
        "meta_object_id": "2023-101D",
        "meta_epoch": "2025-12-02T21:22:51.013344",
        "meta_mean_motion": 15.2784164,
        "meta_eccentricity": 0.0008473,
        "meta_inclination": 97.2923,
        "meta_ra_of_asc_node": 27.1173,
        "meta_arg_of_pericenter": 111.924,
        "meta_mean_anomaly": 248.2901,
        "meta_ephemeris_type": 0,
        "meta_classification_type": "U",
        "meta_norad_cat_id": 57402,
        "meta_element_set_no": 999,
        "meta_rev_at_epoch": 13164,
        "meta_bstar": 0.00039779,
        "meta_mean_motion_dot": 0.00010757,
        "meta_mean_motion_ddot": 0,
        "tle_line1": "1 57402U 23101D   25336.89086821  .00010757  00000+0  39779-3 0  9993",
        "tle_line2": "2 57402  97.2923  27.1173 0008473 111.9240 248.2901 15.27841640131642"
      },
      "geometry": {
        "type": "Point",
        "coordinates": [
          21.802062096064734,
          37.82831339221022
        ]
      }
    },
    {
      "type": "Feature",
      "properties": {
        "norad_id": 57490,
        "name": "FENGYUN 3F",
        "group": "weather",
        "lat": 7.838222510646733,
        "lon": 44.526934594557524,
        "alt_km": 827.4407165944849,
        "timestamp": "2025-12-03T06:58:42.884496+00:00",
        "meta_object_name": "FENGYUN 3F",
        "meta_object_id": "2023-111A",
        "meta_epoch": "2025-12-02T20:47:38.344128",
        "meta_mean_motion": 14.19889236,
        "meta_eccentricity": 7e-05,
        "meta_inclination": 98.7096,
        "meta_ra_of_asc_node": 45.3186,
        "meta_arg_of_pericenter": 85.1009,
        "meta_mean_anomaly": 275.0247,
        "meta_ephemeris_type": 0,
        "meta_classification_type": "U",
        "meta_norad_cat_id": 57490,
        "meta_element_set_no": 999,
        "meta_rev_at_epoch": 12100,
        "meta_bstar": 8.309e-05,
        "meta_mean_motion_dot": 1.33e-06,
        "meta_mean_motion_ddot": 0,
        "tle_line1": "1 57490U 23111A   25336.86641602  .00000133  00000+0  83090-4 0  9995",
        "tle_line2": "2 57490  98.7096  45.3186 0000700  85.1009 275.0247 14.19889236121005"
      },
      "geometry": {
        "type": "Point",
        "coordinates": [
          44.526934594557524,
          7.838222510646733
        ]
      }
    },
    {
      "type": "Feature",
      "properties": {
        "norad_id": 58584,
        "name": "ARKTIKA-M 2",
        "group": "weather",
        "lat": 20.667594019708982,
        "lon": -15.067320579370724,
        "alt_km": 12379.340774648157,
        "timestamp": "2025-12-03T06:58:42.884515+00:00",
        "meta_object_name": "ARKTIKA-M 2",
        "meta_object_id": "2023-198A",
        "meta_epoch": "2025-12-01T08:43:04.634112",
        "meta_mean_motion": 2.00605427,
        "meta_eccentricity": 0.68640288,
        "meta_inclination": 63.2218,
        "meta_ra_of_asc_node": 176.1298,
        "meta_arg_of_pericenter": 268.1507,
        "meta_mean_anomaly": 18.8441,
        "meta_ephemeris_type": 0,
        "meta_classification_type": "U",
        "meta_norad_cat_id": 58584,
        "meta_element_set_no": 999,
        "meta_rev_at_epoch": 1435,
        "meta_bstar": 0,
        "meta_mean_motion_dot": 2.37e-06,
        "meta_mean_motion_ddot": 0,
        "tle_line1": "1 58584U 23198A   25335.36324808  .00000237  00000+0  00000+0 0  9995",
        "tle_line2": "2 58584  63.2218 176.1298 6864028 268.1507  18.8441  2.00605427 14356"
      },
      "geometry": {
        "type": "Point",
        "coordinates": [
          -15.067320579370724,
          20.667594019708982
        ]
      }
    },
    {
      "type": "Feature",
      "properties": {
        "norad_id": 58645,
        "name": "TIANMU-1 11",
        "group": "weather",
        "lat": -25.07686661539393,
        "lon": 0.5500820333610339,
        "alt_km": 492.2647067674334,
        "timestamp": "2025-12-03T06:58:42.884534+00:00",
        "meta_object_name": "TIANMU-1 11",
        "meta_object_id": "2023-205A",
        "meta_epoch": "2025-12-02T20:03:41.058432",
        "meta_mean_motion": 15.24406682,
        "meta_eccentricity": 0.0008912,
        "meta_inclination": 97.3614,
        "meta_ra_of_asc_node": 356.6349,
        "meta_arg_of_pericenter": 349.1041,
        "meta_mean_anomaly": 11.0002,
        "meta_ephemeris_type": 0,
        "meta_classification_type": "U",
        "meta_norad_cat_id": 58645,
        "meta_element_set_no": 999,
        "meta_rev_at_epoch": 10758,
        "meta_bstar": 0.00032052,
        "meta_mean_motion_dot": 7.797e-05,
        "meta_mean_motion_ddot": 0,
        "tle_line1": "1 58645U 23205A   25336.83589188  .00007797  00000+0  32052-3 0  9993",
        "tle_line2": "2 58645  97.3614 356.6349 0008912 349.1041  11.0002 15.24406682107581"
      },
      "geometry": {
        "type": "Point",
        "coordinates": [
          0.5500820333610339,
          -25.07686661539393
        ]
      }
    },
    {
      "type": "Feature",
      "properties": {
        "norad_id": 58646,
        "name": "TIANMU-1 12",
        "group": "weather",
        "lat": -10.5176810507304,
        "lon": 175.5151622323996,
        "alt_km": 500.83137967649054,
        "timestamp": "2025-12-03T06:58:42.884553+00:00",
        "meta_object_name": "TIANMU-1 12",
        "meta_object_id": "2023-205B",
        "meta_epoch": "2025-12-02T20:41:32.210304",
        "meta_mean_motion": 15.2432018,
        "meta_eccentricity": 0.0006698,
        "meta_inclination": 97.3602,
        "meta_ra_of_asc_node": 356.4694,
        "meta_arg_of_pericenter": 334.8765,
        "meta_mean_anomaly": 25.2145,
        "meta_ephemeris_type": 0,
        "meta_classification_type": "U",
        "meta_norad_cat_id": 58646,
        "meta_element_set_no": 999,
        "meta_rev_at_epoch": 10757,
        "meta_bstar": 0.00035644,
        "meta_mean_motion_dot": 8.653e-05,
        "meta_mean_motion_ddot": 0,
        "tle_line1": "1 58646U 23205B   25336.86217836  .00008653  00000+0  35644-3 0  9997",
        "tle_line2": "2 58646  97.3602 356.4694 0006698 334.8765  25.2145 15.24320180107575"
      },
      "geometry": {
        "type": "Point",
        "coordinates": [
          175.5151622323996,
          -10.5176810507304
        ]
      }
    }
  ]
}